{
  "type": "FeatureCollection",
  "features": [
    {
      "type": "Feature",
      "geometry": {
        "type": "Point",
        "coordinates": [
          130.9172378,
          33.98002116
        ]
      },
      "properties": {
        "NO": 1,
        "name": "福海苑",
        "住所": "下関市武久町2-53-10",
        "定員": 100.0,
        "戸数": null,
        "電話番号": "253-5333",
        "種別": "軽費老人ホーム（A型）"
      }
    },
    {
      "type": "Feature",
      "geometry": {
        "type": "Point",
        "coordinates": [
          130.9697968,
          34.01769556
        ]
      },
      "properties": {
        "NO": 2,
        "name": "しゃくなげ園",
        "住所": "下関市大字田倉82-1",
        "定員": 70.0,
        "戸数": null,
        "電話番号": "256-5411",
        "種別": "軽費老人ホーム（A型）"
      }
    },
    {
      "type": "Feature",
      "geometry": {
        "type": "Point",
        "coordinates": [
          130.9177423,
          33.98159796
        ]
      },
      "properties": {
        "NO": 1,
        "name": "武久苑",
        "住所": "下関市武久町2-48-18",
        "定員": 50.0,
        "戸数": null,
        "電話番号": "255-3120",
        "種別": "軽費老人ホーム（ケアハウス）"
      }
    },
    {
      "type": "Feature",
      "geometry": {
        "type": "Point",
        "coordinates": [
          130.9155255,
          33.9723689
        ]
      },
      "properties": {
        "NO": 2,
        "name": "あかつき",
        "住所": "下関市汐入町36-6",
        "定員": 60.0,
        "戸数": null,
        "電話番号": "222-2525",
        "種別": "軽費老人ホーム（ケアハウス）"
      }
    },
    {
      "type": "Feature",
      "geometry": {
        "type": "Point",
        "coordinates": [
          130.8797,
          33.94474375
        ]
      },
      "properties": {
        "NO": 3,
        "name": "フロイデ彦島",
        "住所": "下関市彦島西山町3-12-1",
        "定員": 50.0,
        "戸数": null,
        "電話番号": "261-5539",
        "種別": "軽費老人ホーム（ケアハウス）"
      }
    },
    {
      "type": "Feature",
      "geometry": {
        "type": "Point",
        "coordinates": [
          130.9861642,
          33.98484764
        ]
      },
      "properties": {
        "NO": 4,
        "name": "長府ケアハウス",
        "住所": "下関市長府黒門南町6-55",
        "定員": 50.0,
        "戸数": null,
        "電話番号": "246-1003",
        "種別": "介護老人保健施設"
      }
    },
    {
      "type": "Feature",
      "geometry": {
        "type": "Point",
        "coordinates": [
          131.0011906,
          34.02333751
        ]
      },
      "properties": {
        "NO": 5,
        "name": "わかば",
        "住所": "下関市長府才川2-20-38",
        "定員": 50.0,
        "戸数": null,
        "電話番号": "248-5111",
        "種別": "介護老人保健施設"
      }
    },
    {
      "type": "Feature",
      "geometry": {
        "type": "Point",
        "coordinates": [
          131.0521365,
          34.0636182
        ]
      },
      "properties": {
        "NO": 6,
        "name": "王喜の郷",
        "住所": "下関市王喜本町6-1-12",
        "定員": 50.0,
        "戸数": null,
        "電話番号": "283-2834",
        "種別": "介護老人保健施設"
      }
    },
    {
      "type": "Feature",
      "geometry": {
        "type": "Point",
        "coordinates": [
          130.9104532,
          34.03500344
        ]
      },
      "properties": {
        "NO": 7,
        "name": "オリーブ",
        "住所": "下関市横野町3-15-10",
        "定員": 50.0,
        "戸数": null,
        "電話番号": "258-3833",
        "種別": "介護老人保健施設"
      }
    },
    {
      "type": "Feature",
      "geometry": {
        "type": "Point",
        "coordinates": [
          131.0432674,
          34.25333832
        ]
      },
      "properties": {
        "NO": 8,
        "name": "グリーンハイツとよた",
        "住所": "下関市豊田町大字荒木10051-2",
        "定員": 50.0,
        "戸数": null,
        "電話番号": "768-0601",
        "種別": "介護老人保健施設"
      }
    },
    {
      "type": "Feature",
      "geometry": {
        "type": "Point",
        "coordinates": [
          130.9247518,
          34.13865173
        ]
      },
      "properties": {
        "NO": 9,
        "name": "SUN（サン）",
        "住所": "下関市豊浦町大字川棚12139-2",
        "定員": 50.0,
        "戸数": null,
        "電話番号": "774-3901",
        "種別": "介護老人保健施設"
      }
    },
    {
      "type": "Feature",
      "geometry": {
        "type": "Point",
        "coordinates": [
          130.8987577,
          34.0996046
        ]
      },
      "properties": {
        "NO": 1,
        "name": "陽光苑",
        "住所": "下関市大字永田郷158-1",
        "定員": 110.0,
        "戸数": null,
        "電話番号": "286-2125",
        "種別": "養護老人ホーム"
      }
    },
    {
      "type": "Feature",
      "geometry": {
        "type": "Point",
        "coordinates": [
          130.8943564,
          34.09547725
        ]
      },
      "properties": {
        "NO": 2,
        "name": "春光苑（盲）",
        "住所": "下関市大字永田郷440-3",
        "定員": 80.0,
        "戸数": null,
        "電話番号": "286-7300",
        "種別": "養護老人ホーム"
      }
    },
    {
      "type": "Feature",
      "geometry": {
        "type": "Point",
        "coordinates": [
          130.8781379,
          34.29446597
        ]
      },
      "properties": {
        "NO": 3,
        "name": "松涛園",
        "住所": "下関市豊北町大字神田上1893",
        "定員": 50.0,
        "戸数": null,
        "電話番号": "788-0026",
        "種別": "養護老人ホーム"
      }
    },
    {
      "type": "Feature",
      "geometry": {
        "type": "Point",
        "coordinates": [
          130.9102181,
          34.03434832
        ]
      },
      "properties": {
        "NO": 1,
        "name": "ねぎぼうず",
        "住所": "下関市横野町3-16-5",
        "定員": 20.0,
        "戸数": null,
        "電話番号": "262-3800",
        "種別": "生活支援ハウス"
      }
    },
    {
      "type": "Feature",
      "geometry": {
        "type": "Point",
        "coordinates": [
          130.9170337,
          33.98055164
        ]
      },
      "properties": {
        "NO": 1,
        "name": "青海荘",
        "住所": "下関市武久町2-53-8",
        "定員": 100.0,
        "戸数": null,
        "電話番号": "252-7124",
        "種別": "介護老人保健施設"
      }
    },
    {
      "type": "Feature",
      "geometry": {
        "type": "Point",
        "coordinates": [
          130.9170337,
          33.98055164
        ]
      },
      "properties": {
        "NO": 2,
        "name": "青海荘 弐番館",
        "住所": "下関市武久町2-53-8",
        "定員": 60.0,
        "戸数": null,
        "電話番号": "252-2124",
        "種別": "介護老人保健施設"
      }
    },
    {
      "type": "Feature",
      "geometry": {
        "type": "Point",
        "coordinates": [
          130.899457,
          34.06968712
        ]
      },
      "properties": {
        "NO": 3,
        "name": "葵の園・下関",
        "住所": "下関市吉見新町1-6-17",
        "定員": 96.0,
        "戸数": null,
        "電話番号": "286-2137",
        "種別": "介護老人保健施設"
      }
    },
    {
      "type": "Feature",
      "geometry": {
        "type": "Point",
        "coordinates": [
          130.9920441,
          34.00233595
        ]
      },
      "properties": {
        "NO": 4,
        "name": "アイユウ",
        "住所": "下関市長府金屋浜町1-5",
        "定員": 97.0,
        "戸数": null,
        "電話番号": "246-5453",
        "種別": "介護老人保健施設"
      }
    },
    {
      "type": "Feature",
      "geometry": {
        "type": "Point",
        "coordinates": [
          130.9098095,
          34.03444252
        ]
      },
      "properties": {
        "NO": 5,
        "name": "コスモス",
        "住所": "下関市横野町3-16-35",
        "定員": 71.0,
        "戸数": null,
        "電話番号": "258-3030",
        "種別": "介護老人保健施設"
      }
    },
    {
      "type": "Feature",
      "geometry": {
        "type": "Point",
        "coordinates": [
          130.9238726,
          34.01808824
        ]
      },
      "properties": {
        "NO": 6,
        "name": "豊松苑",
        "住所": "下関市富任町6-17-20",
        "定員": 50.0,
        "戸数": null,
        "電話番号": "259-7381",
        "種別": "介護老人保健施設"
      }
    },
    {
      "type": "Feature",
      "geometry": {
        "type": "Point",
        "coordinates": [
          131.0416473,
          34.12553634
        ]
      },
      "properties": {
        "NO": 7,
        "name": "ライフ菊川",
        "住所": "下関市菊川町大字下岡枝1113",
        "定員": 70.0,
        "戸数": null,
        "電話番号": "287-3081",
        "種別": "介護老人保健施設"
      }
    },
    {
      "type": "Feature",
      "geometry": {
        "type": "Point",
        "coordinates": [
          130.9262889,
          34.16915937
        ]
      },
      "properties": {
        "NO": 8,
        "name": "ひびき苑",
        "住所": "下関市豊浦町大字小串10007-3",
        "定員": 50.0,
        "戸数": null,
        "電話番号": "772-2231",
        "種別": "介護老人保健施設"
      }
    },
    {
      "type": "Feature",
      "geometry": {
        "type": "Point",
        "coordinates": [
          130.9443599,
          34.28380405
        ]
      },
      "properties": {
        "NO": 9,
        "name": "ももとせ",
        "住所": "下関市豊北町大字滝部3669-1",
        "定員": 60.0,
        "戸数": null,
        "電話番号": "782-0032",
        "種別": "介護老人保健施設"
      }
    },
    {
      "type": "Feature",
      "geometry": {
        "type": "Point",
        "coordinates": [
          130.999843,
          34.02421393
        ]
      },
      "properties": {
        "NO": 1,
        "name": "介護医療院さくら寮",
        "住所": "下関市長府才川2-21-2",
        "定員": 30.0,
        "戸数": null,
        "電話番号": "248-0254",
        "種別": "介護医療院"
      }
    },
    {
      "type": "Feature",
      "geometry": {
        "type": "Point",
        "coordinates": [
          131.0154527,
          34.04114309
        ]
      },
      "properties": {
        "NO": 2,
        "name": "王司介護医療院",
        "住所": "下関市王司本町1-18-27",
        "定員": 48.0,
        "戸数": null,
        "電話番号": "248-3631",
        "種別": "介護医療院"
      }
    },
    {
      "type": "Feature",
      "geometry": {
        "type": "Point",
        "coordinates": [
          131.0366725,
          34.07061841
        ]
      },
      "properties": {
        "NO": 3,
        "name": "岡医院介護医療院",
        "住所": "下関市小月本町2-15-20",
        "定員": 44.0,
        "戸数": null,
        "電話番号": "282-0070",
        "種別": "介護医療院"
      }
    },
    {
      "type": "Feature",
      "geometry": {
        "type": "Point",
        "coordinates": [
          130.9340711,
          33.96846557
        ]
      },
      "properties": {
        "NO": 4,
        "name": "介護医療院あかね",
        "住所": "下関市後田町1-1-1",
        "定員": 60.0,
        "戸数": null,
        "電話番号": "231-3888",
        "種別": "介護医療院"
      }
    },
    {
      "type": "Feature",
      "geometry": {
        "type": "Point",
        "coordinates": [
          130.9098095,
          34.03444252
        ]
      },
      "properties": {
        "NO": 5,
        "name": "安岡病院介護医療院",
        "住所": "下関市横野町3-16-35",
        "定員": 44.0,
        "戸数": null,
        "電話番号": "258-3711",
        "種別": "介護医療院"
      }
    },
    {
      "type": "Feature",
      "geometry": {
        "type": "Point",
        "coordinates": [
          130.9170337,
          33.98055164
        ]
      },
      "properties": {
        "NO": 6,
        "name": "たけひさ介護医療院",
        "住所": "下関市武久町2-53-8",
        "定員": 95.0,
        "戸数": null,
        "電話番号": "227-2575",
        "種別": "介護医療院"
      }
    },
    {
      "type": "Feature",
      "geometry": {
        "type": "Point",
        "coordinates": [
          130.9463341,
          33.96343039
        ]
      },
      "properties": {
        "NO": 7,
        "name": "森山病院介護医療院",
        "住所": "下関市宮田町2-8-20",
        "定員": 48.0,
        "戸数": null,
        "電話番号": "231-0781",
        "種別": "介護医療院"
      }
    },
    {
      "type": "Feature",
      "geometry": {
        "type": "Point",
        "coordinates": [
          130.9900342,
          33.99795155
        ]
      },
      "properties": {
        "NO": 8,
        "name": "まつなが医院介護医療院",
        "住所": "下関市長府中浜町2-5",
        "定員": 4.0,
        "戸数": null,
        "電話番号": "245-2103",
        "種別": "介護医療院"
      }
    },
    {
      "type": "Feature",
      "geometry": {
        "type": "Point",
        "coordinates": [
          130.9547322,
          33.96724853
        ]
      },
      "properties": {
        "NO": 1,
        "name": "愛グループ シャングリラ",
        "住所": "下関市みもすそ川町23-1",
        "定員": 22.0,
        "戸数": null,
        "電話番号": "231-1165",
        "種別": "有料老人ホーム"
      }
    },
    {
      "type": "Feature",
      "geometry": {
        "type": "Point",
        "coordinates": [
          130.9542197,
          33.96994566
        ]
      },
      "properties": {
        "NO": 2,
        "name": "みもすそ川",
        "住所": "下関市みもすそ川町10-20",
        "定員": 8.0,
        "戸数": null,
        "電話番号": "232-0555",
        "種別": "有料老人ホーム"
      }
    },
    {
      "type": "Feature",
      "geometry": {
        "type": "Point",
        "coordinates": [
          130.941566,
          33.95927155
        ]
      },
      "properties": {
        "NO": 3,
        "name": "あんじゅ田中町",
        "住所": "下関市田中町4-16",
        "定員": 18.0,
        "戸数": null,
        "電話番号": "250-7574",
        "種別": "有料老人ホーム"
      }
    },
    {
      "type": "Feature",
      "geometry": {
        "type": "Point",
        "coordinates": [
          130.9503398,
          33.96767819
        ]
      },
      "properties": {
        "NO": 4,
        "name": "お年寄りの住まい 道の家",
        "住所": "下関市本町4丁目14-13",
        "定員": 10.0,
        "戸数": null,
        "電話番号": "242-5552",
        "種別": "有料老人ホーム"
      }
    },
    {
      "type": "Feature",
      "geometry": {
        "type": "Point",
        "coordinates": [
          130.9427343,
          33.98614373
        ]
      },
      "properties": {
        "NO": 5,
        "name": "お年寄りの住まい 道の家(三河)",
        "住所": "下関市三河町15-10",
        "定員": 22.0,
        "戸数": null,
        "電話番号": "252-2500",
        "種別": "有料老人ホーム"
      }
    },
    {
      "type": "Feature",
      "geometry": {
        "type": "Point",
        "coordinates": [
          130.9413314,
          33.97194962
        ]
      },
      "properties": {
        "NO": 6,
        "name": "すずらん貴船",
        "住所": "下関市椋野町1丁目18-54",
        "定員": 21.0,
        "戸数": null,
        "電話番号": "250-6070",
        "種別": "有料老人ホーム"
      }
    },
    {
      "type": "Feature",
      "geometry": {
        "type": "Point",
        "coordinates": [
          130.9369802,
          33.95345486
        ]
      },
      "properties": {
        "NO": 7,
        "name": "つんた家",
        "住所": "下関市観音崎町5-13",
        "定員": 25.0,
        "戸数": null,
        "電話番号": "227-2675",
        "種別": "有料老人ホーム"
      }
    },
    {
      "type": "Feature",
      "geometry": {
        "type": "Point",
        "coordinates": [
          130.9187943,
          33.97793116
        ]
      },
      "properties": {
        "NO": 8,
        "name": "ヴィラジオ武久",
        "住所": "下関市武久町2丁目37-24",
        "定員": 66.0,
        "戸数": null,
        "電話番号": "255-1101",
        "種別": "有料老人ホーム"
      }
    },
    {
      "type": "Feature",
      "geometry": {
        "type": "Point",
        "coordinates": [
          130.9300757,
          33.9876871
        ]
      },
      "properties": {
        "NO": 9,
        "name": "アドバンス山の田",
        "住所": "下関市山の田東町1-20",
        "定員": 48.0,
        "戸数": null,
        "電話番号": "242-6776",
        "種別": "有料老人ホーム"
      }
    },
    {
      "type": "Feature",
      "geometry": {
        "type": "Point",
        "coordinates": [
          130.9283016,
          33.96712085
        ]
      },
      "properties": {
        "NO": 10,
        "name": "ありすの丘",
        "住所": "下関市東向山町13-9",
        "定員": 62.0,
        "戸数": null,
        "電話番号": "232-3331",
        "種別": "有料老人ホーム"
      }
    },
    {
      "type": "Feature",
      "geometry": {
        "type": "Point",
        "coordinates": [
          130.923342,
          33.96196815
        ]
      },
      "properties": {
        "NO": 11,
        "name": "すずらん",
        "住所": "下関市神田町2-13-5",
        "定員": 18.0,
        "戸数": null,
        "電話番号": "250-8770",
        "種別": "有料老人ホーム"
      }
    },
    {
      "type": "Feature",
      "geometry": {
        "type": "Point",
        "coordinates": [
          130.9240659,
          33.9673934
        ]
      },
      "properties": {
        "NO": 12,
        "name": "ベルリーフ元町",
        "住所": "下関市元町1-8",
        "定員": 51.0,
        "戸数": null,
        "電話番号": "228-1550",
        "種別": "有料老人ホーム"
      }
    },
    {
      "type": "Feature",
      "geometry": {
        "type": "Point",
        "coordinates": [
          130.9327056,
          33.97247004
        ]
      },
      "properties": {
        "NO": 13,
        "name": "すずらん 後田",
        "住所": "下関市後田町3-1-28",
        "定員": 52.0,
        "戸数": null,
        "電話番号": "250-8536",
        "種別": "有料老人ホーム"
      }
    },
    {
      "type": "Feature",
      "geometry": {
        "type": "Point",
        "coordinates": [
          130.927945,
          33.96970208
        ]
      },
      "properties": {
        "NO": 14,
        "name": "サンライフ東駅",
        "住所": "下関市後田町4-4-3",
        "定員": 80.0,
        "戸数": null,
        "電話番号": "229-3567",
        "種別": "有料老人ホーム"
      }
    },
    {
      "type": "Feature",
      "geometry": {
        "type": "Point",
        "coordinates": [
          130.9356829,
          33.96868218
        ]
      },
      "properties": {
        "NO": 15,
        "name": "そよ風",
        "住所": "下関市山の口町1-30",
        "定員": 51.0,
        "戸数": null,
        "電話番号": "242-7601",
        "種別": "有料老人ホーム"
      }
    },
    {
      "type": "Feature",
      "geometry": {
        "type": "Point",
        "coordinates": [
          130.9178372,
          33.93002819
        ]
      },
      "properties": {
        "NO": 16,
        "name": "ケアタウン江の浦I",
        "住所": "下関市彦島江の浦町9-4-5",
        "定員": 19.0,
        "戸数": null,
        "電話番号": "261-5611",
        "種別": "有料老人ホーム"
      }
    },
    {
      "type": "Feature",
      "geometry": {
        "type": "Point",
        "coordinates": [
          130.9183067,
          33.92949905
        ]
      },
      "properties": {
        "NO": 17,
        "name": "ケアタウン江の浦II",
        "住所": "下関市彦島江の浦町9-2-14",
        "定員": 7.0,
        "戸数": null,
        "電話番号": "261-5613",
        "種別": "有料老人ホーム"
      }
    },
    {
      "type": "Feature",
      "geometry": {
        "type": "Point",
        "coordinates": [
          130.9134314,
          33.9273086
        ]
      },
      "properties": {
        "NO": 18,
        "name": "セービングひこしま",
        "住所": "下関市彦島福浦町3-3-18",
        "定員": 46.0,
        "戸数": null,
        "電話番号": "250-8777",
        "種別": "有料老人ホーム"
      }
    },
    {
      "type": "Feature",
      "geometry": {
        "type": "Point",
        "coordinates": [
          130.9265267,
          33.92539036
        ]
      },
      "properties": {
        "NO": 19,
        "name": "和らぎの家",
        "住所": "下関市彦島弟子待町1丁目5-32",
        "定員": 27.0,
        "戸数": null,
        "電話番号": "266-5577",
        "種別": "有料老人ホーム"
      }
    },
    {
      "type": "Feature",
      "geometry": {
        "type": "Point",
        "coordinates": [
          130.9127701,
          33.91969179
        ]
      },
      "properties": {
        "NO": 20,
        "name": "ハートケアしおはま",
        "住所": "下関市彦島塩浜町3-14-52",
        "定員": 40.0,
        "戸数": null,
        "電話番号": "227-4165",
        "種別": "有料老人ホーム"
      }
    },
    {
      "type": "Feature",
      "geometry": {
        "type": "Point",
        "coordinates": [
          130.9125398,
          33.91965704
        ]
      },
      "properties": {
        "NO": 21,
        "name": "アイユウの苑しおはま",
        "住所": "下関市彦島塩浜町3-14-47",
        "定員": 20.0,
        "戸数": null,
        "電話番号": "267-8800",
        "種別": "有料老人ホーム"
      }
    },
    {
      "type": "Feature",
      "geometry": {
        "type": "Point",
        "coordinates": [
          130.8894897,
          33.94513497
        ]
      },
      "properties": {
        "NO": 22,
        "name": "にしやま",
        "住所": "下関市彦島西山町2-4-41",
        "定員": 23.0,
        "戸数": null,
        "電話番号": "261-0110",
        "種別": "有料老人ホーム"
      }
    },
    {
      "type": "Feature",
      "geometry": {
        "type": "Point",
        "coordinates": [
          130.9862225,
          33.99681508
        ]
      },
      "properties": {
        "NO": 23,
        "name": "宅老所安夢住椿館",
        "住所": "下関市長府惣社町2-39",
        "定員": 8.0,
        "戸数": null,
        "電話番号": "245-2285",
        "種別": "有料老人ホーム"
      }
    },
    {
      "type": "Feature",
      "geometry": {
        "type": "Point",
        "coordinates": [
          130.9859942,
          33.98438159
        ]
      },
      "properties": {
        "NO": 24,
        "name": "昇陽館",
        "住所": "下関市長府黒門南町6-54",
        "定員": 69.0,
        "戸数": null,
        "電話番号": "241-1500",
        "種別": "有料老人ホーム"
      }
    },
    {
      "type": "Feature",
      "geometry": {
        "type": "Point",
        "coordinates": [
          130.9855801,
          33.98396679
        ]
      },
      "properties": {
        "NO": 25,
        "name": "昇陽弐番館",
        "住所": "下関市長府黒門南町6-53",
        "定員": 114.0,
        "戸数": null,
        "電話番号": "241-1600",
        "種別": "有料老人ホーム"
      }
    },
    {
      "type": "Feature",
      "geometry": {
        "type": "Point",
        "coordinates": [
          131.0042642,
          34.02144808
        ]
      },
      "properties": {
        "NO": 26,
        "name": "ナーシング夢叶",
        "住所": "下関市長府才川2-15-5",
        "定員": 30.0,
        "戸数": null,
        "電話番号": "249-5306",
        "種別": "有料老人ホーム"
      }
    },
    {
      "type": "Feature",
      "geometry": {
        "type": "Point",
        "coordinates": [
          131.013691,
          34.04151398
        ]
      },
      "properties": {
        "NO": 27,
        "name": "まほろば",
        "住所": "下関市王司上町5-6-32",
        "定員": 50.0,
        "戸数": null,
        "電話番号": "248-3333",
        "種別": "有料老人ホーム"
      }
    },
    {
      "type": "Feature",
      "geometry": {
        "type": "Point",
        "coordinates": [
          131.0170284,
          34.04877743
        ]
      },
      "properties": {
        "NO": 28,
        "name": "ふじ乃家",
        "住所": "下関市王司神田6-3-43",
        "定員": 21.0,
        "戸数": null,
        "電話番号": "227-2533",
        "種別": "有料老人ホーム"
      }
    },
    {
      "type": "Feature",
      "geometry": {
        "type": "Point",
        "coordinates": [
          131.0127125,
          34.0472842
        ]
      },
      "properties": {
        "NO": 29,
        "name": "あおい館",
        "住所": "下関市王司神田2-3-6",
        "定員": 8.0,
        "戸数": null,
        "電話番号": "245-0874",
        "種別": "有料老人ホーム"
      }
    },
    {
      "type": "Feature",
      "geometry": {
        "type": "Point",
        "coordinates": [
          131.0380635,
          34.07437842
        ]
      },
      "properties": {
        "NO": 30,
        "name": "せせらぎの里",
        "住所": "下関市小月宮の町7-3",
        "定員": 36.0,
        "戸数": null,
        "電話番号": "282-0007",
        "種別": "有料老人ホーム"
      }
    },
    {
      "type": "Feature",
      "geometry": {
        "type": "Point",
        "coordinates": [
          131.0350557,
          34.07374558
        ]
      },
      "properties": {
        "NO": 31,
        "name": "つくしんぼ",
        "住所": "下関市小月本町1-1-4",
        "定員": 5.0,
        "戸数": null,
        "電話番号": "242-2535",
        "種別": "有料老人ホーム"
      }
    },
    {
      "type": "Feature",
      "geometry": {
        "type": "Point",
        "coordinates": [
          131.0517573,
          34.06403723
        ]
      },
      "properties": {
        "NO": 32,
        "name": "シニアハウス王喜の郷",
        "住所": "下関市王喜本町5-4-18",
        "定員": 9.0,
        "戸数": null,
        "電話番号": "282-1948",
        "種別": "有料老人ホーム"
      }
    },
    {
      "type": "Feature",
      "geometry": {
        "type": "Point",
        "coordinates": [
          131.0566727,
          34.05055288
        ]
      },
      "properties": {
        "NO": 33,
        "name": "王喜苑",
        "住所": "下関市松屋本町2-3-38",
        "定員": 54.0,
        "戸数": null,
        "電話番号": "281-1200",
        "種別": "有料老人ホーム"
      }
    },
    {
      "type": "Feature",
      "geometry": {
        "type": "Point",
        "coordinates": [
          130.9701834,
          34.09992831
        ]
      },
      "properties": {
        "NO": 34,
        "name": "有料老人ホーム宅老所豆たん2",
        "住所": "下関市大字内日下1026-1",
        "定員": 10.0,
        "戸数": null,
        "電話番号": "289-2698",
        "種別": "有料老人ホーム"
      }
    },
    {
      "type": "Feature",
      "geometry": {
        "type": "Point",
        "coordinates": [
          130.9702029,
          34.10012238
        ]
      },
      "properties": {
        "NO": 35,
        "name": "宅老所豆たん",
        "住所": "下関市大字内日下1027-1",
        "定員": 25.0,
        "戸数": null,
        "電話番号": "289-2698",
        "種別": "有料老人ホーム"
      }
    },
    {
      "type": "Feature",
      "geometry": {
        "type": "Point",
        "coordinates": [
          130.9764979,
          34.11166634
        ]
      },
      "properties": {
        "NO": 36,
        "name": "もみじの里",
        "住所": "下関市大字植田937",
        "定員": 8.0,
        "戸数": null,
        "電話番号": "289-2040",
        "種別": "有料老人ホーム"
      }
    },
    {
      "type": "Feature",
      "geometry": {
        "type": "Point",
        "coordinates": [
          130.9697968,
          34.01769556
        ]
      },
      "properties": {
        "NO": 37,
        "name": "しゃくなげ園高齢者ミニ福祉ホーム",
        "住所": "下関市大字田倉82-1",
        "定員": 14.0,
        "戸数": null,
        "電話番号": "256-5411",
        "種別": "有料老人ホーム"
      }
    },
    {
      "type": "Feature",
      "geometry": {
        "type": "Point",
        "coordinates": [
          130.9463141,
          34.0042293
        ]
      },
      "properties": {
        "NO": 38,
        "name": "四季の森",
        "住所": "下関市一の宮町1-3-46",
        "定員": 71.0,
        "戸数": null,
        "電話番号": "263-1001",
        "種別": "有料老人ホーム"
      }
    },
    {
      "type": "Feature",
      "geometry": {
        "type": "Point",
        "coordinates": [
          130.9505033,
          33.9999126
        ]
      },
      "properties": {
        "NO": 39,
        "name": "いちのみや",
        "住所": "下関市一の宮町2-18-25",
        "定員": 27.0,
        "戸数": null,
        "電話番号": "227-4456",
        "種別": "有料老人ホーム"
      }
    },
    {
      "type": "Feature",
      "geometry": {
        "type": "Point",
        "coordinates": [
          130.950578,
          33.99839799
        ]
      },
      "properties": {
        "NO": 40,
        "name": "ハートケア一の宮",
        "住所": "下関市一の宮町3-3-15",
        "定員": 44.0,
        "戸数": null,
        "電話番号": "249-6307",
        "種別": "有料老人ホーム"
      }
    },
    {
      "type": "Feature",
      "geometry": {
        "type": "Point",
        "coordinates": [
          130.9543552,
          33.99755498
        ]
      },
      "properties": {
        "NO": 41,
        "name": "シニアハウスぱれっと住吉",
        "住所": "下関市一の宮住吉2丁目10-11",
        "定員": 49.0,
        "戸数": null,
        "電話番号": "263-1100",
        "種別": "有料老人ホーム"
      }
    },
    {
      "type": "Feature",
      "geometry": {
        "type": "Point",
        "coordinates": [
          130.9479779,
          34.01716674
        ]
      },
      "properties": {
        "NO": 42,
        "name": "燦燦（さんさん）",
        "住所": "下関市大字石原字上岡175-11",
        "定員": 53.0,
        "戸数": null,
        "電話番号": "250-8255",
        "種別": "有料老人ホーム"
      }
    },
    {
      "type": "Feature",
      "geometry": {
        "type": "Point",
        "coordinates": [
          130.9108165,
          34.0011283
        ]
      },
      "properties": {
        "NO": 43,
        "name": "ケアライフ綾羅木",
        "住所": "下関市大字垢田355",
        "定員": 47.0,
        "戸数": null,
        "電話番号": "250-1165",
        "種別": "有料老人ホーム"
      }
    },
    {
      "type": "Feature",
      "geometry": {
        "type": "Point",
        "coordinates": [
          130.9136512,
          33.98486019
        ]
      },
      "properties": {
        "NO": 44,
        "name": "夢沓舎",
        "住所": "下関市新垢田西町2-2-22",
        "定員": 100.0,
        "戸数": null,
        "電話番号": "251-1313",
        "種別": "有料老人ホーム"
      }
    },
    {
      "type": "Feature",
      "geometry": {
        "type": "Point",
        "coordinates": [
          130.9213239,
          34.01137733
        ]
      },
      "properties": {
        "NO": 45,
        "name": "あやらぎ",
        "住所": "下関市綾羅木新町1-16-13",
        "定員": 11.0,
        "戸数": null,
        "電話番号": "227-4321",
        "種別": "有料老人ホーム"
      }
    },
    {
      "type": "Feature",
      "geometry": {
        "type": "Point",
        "coordinates": [
          130.9213185,
          34.01122741
        ]
      },
      "properties": {
        "NO": 46,
        "name": "あやらぎ本館",
        "住所": "下関市綾羅木新町1-16-15",
        "定員": 64.0,
        "戸数": null,
        "電話番号": "227-4321",
        "種別": "有料老人ホーム"
      }
    },
    {
      "type": "Feature",
      "geometry": {
        "type": "Point",
        "coordinates": [
          130.918623124863,
          34.0127002261162
        ]
      },
      "properties": {
        "NO": 47,
        "name": "ウェリナ",
        "住所": "下関市綾羅木新町2-7-17",
        "定員": 4.0,
        "戸数": null,
        "電話番号": "242-7111",
        "種別": "有料老人ホーム"
      }
    },
    {
      "type": "Feature",
      "geometry": {
        "type": "Point",
        "coordinates": [
          130.9433481,
          34.00434204
        ]
      },
      "properties": {
        "NO": 48,
        "name": "私の家 まいほーむ",
        "住所": "下関市伊倉東町6-4",
        "定員": 9.0,
        "戸数": null,
        "電話番号": "227-2870/242-2021",
        "種別": "有料老人ホーム"
      }
    },
    {
      "type": "Feature",
      "geometry": {
        "type": "Point",
        "coordinates": [
          130.9206597,
          34.01954039
        ]
      },
      "properties": {
        "NO": 49,
        "name": "山茶花（さざんか）",
        "住所": "下関市富任町3-4-28",
        "定員": 54.0,
        "戸数": null,
        "電話番号": "262-1465",
        "種別": "有料老人ホーム"
      }
    },
    {
      "type": "Feature",
      "geometry": {
        "type": "Point",
        "coordinates": [
          130.9278384,
          34.02390211
        ]
      },
      "properties": {
        "NO": 50,
        "name": "えがお",
        "住所": "下関市富任町8-8-3",
        "定員": 20.0,
        "戸数": null,
        "電話番号": "258-1511",
        "種別": "有料老人ホーム"
      }
    },
    {
      "type": "Feature",
      "geometry": {
        "type": "Point",
        "coordinates": [
          130.9279016,
          34.0247355
        ]
      },
      "properties": {
        "NO": 51,
        "name": "ルナレーヴ",
        "住所": "下関市大字冨任131",
        "定員": 65.0,
        "戸数": null,
        "電話番号": "258-4165",
        "種別": "有料老人ホーム"
      }
    },
    {
      "type": "Feature",
      "geometry": {
        "type": "Point",
        "coordinates": [
          130.9268496,
          34.02496317
        ]
      },
      "properties": {
        "NO": 52,
        "name": "ルナテラス",
        "住所": "下関市大字冨任91",
        "定員": 65.0,
        "戸数": null,
        "電話番号": "262-1765",
        "種別": "有料老人ホーム"
      }
    },
    {
      "type": "Feature",
      "geometry": {
        "type": "Point",
        "coordinates": [
          130.9238273,
          34.02617449
        ]
      },
      "properties": {
        "NO": 53,
        "name": "ひまわり安岡",
        "住所": "下関市大字安岡1478-1",
        "定員": 49.0,
        "戸数": null,
        "電話番号": "250-8753",
        "種別": "有料老人ホーム"
      }
    },
    {
      "type": "Feature",
      "geometry": {
        "type": "Point",
        "coordinates": [
          130.9180697,
          34.03043332
        ]
      },
      "properties": {
        "NO": 54,
        "name": "杜の宮",
        "住所": "下関市安岡町4-9-38",
        "定員": 9.0,
        "戸数": null,
        "電話番号": "262-2551",
        "種別": "有料老人ホーム"
      }
    },
    {
      "type": "Feature",
      "geometry": {
        "type": "Point",
        "coordinates": [
          130.9129524,
          34.03470842
        ]
      },
      "properties": {
        "NO": 55,
        "name": "あんしんホームやすおか",
        "住所": "下関市横野町3-1-2",
        "定員": 64.0,
        "戸数": null,
        "電話番号": "258-3200",
        "種別": "有料老人ホーム"
      }
    },
    {
      "type": "Feature",
      "geometry": {
        "type": "Point",
        "coordinates": [
          130.9132367,
          34.0352921
        ]
      },
      "properties": {
        "NO": 56,
        "name": "やすらが丘",
        "住所": "下関市横野町4-2-18",
        "定員": 19.0,
        "戸数": null,
        "電話番号": "258-1113/258-1114",
        "種別": "有料老人ホーム"
      }
    },
    {
      "type": "Feature",
      "geometry": {
        "type": "Point",
        "coordinates": [
          130.9109434,
          34.03609254
        ]
      },
      "properties": {
        "NO": 57,
        "name": "バーデン・バーデン",
        "住所": "下関市横野町4-9-24",
        "定員": 20.0,
        "戸数": null,
        "電話番号": "258-5000",
        "種別": "有料老人ホーム"
      }
    },
    {
      "type": "Feature",
      "geometry": {
        "type": "Point",
        "coordinates": [
          130.9152628,
          34.04595956
        ]
      },
      "properties": {
        "NO": 58,
        "name": "ハートケアきらら",
        "住所": "下関市大字福江1425-1",
        "定員": 31.0,
        "戸数": null,
        "電話番号": "262-3401",
        "種別": "有料老人ホーム"
      }
    },
    {
      "type": "Feature",
      "geometry": {
        "type": "Point",
        "coordinates": [
          130.8820193,
          34.09145172
        ]
      },
      "properties": {
        "NO": 59,
        "name": "花水木",
        "住所": "下関市大字吉母218",
        "定員": 60.0,
        "戸数": null,
        "電話番号": "249-5588",
        "種別": "有料老人ホーム"
      }
    },
    {
      "type": "Feature",
      "geometry": {
        "type": "Point",
        "coordinates": [
          131.0004563,
          34.12896588
        ]
      },
      "properties": {
        "NO": 60,
        "name": "菊川有料老人ホームひかり",
        "住所": "下関市菊川町大字楢崎1289-1",
        "定員": 48.0,
        "戸数": null,
        "電話番号": "287-1205",
        "種別": "有料老人ホーム"
      }
    },
    {
      "type": "Feature",
      "geometry": {
        "type": "Point",
        "coordinates": [
          131.0366304,
          34.12698713
        ]
      },
      "properties": {
        "NO": 61,
        "name": "菊川有料老人ホームわだち",
        "住所": "下関市菊川町大字下岡枝388-1",
        "定員": 48.0,
        "戸数": null,
        "電話番号": "288-2420",
        "種別": "有料老人ホーム"
      }
    },
    {
      "type": "Feature",
      "geometry": {
        "type": "Point",
        "coordinates": [
          130.978248,
          34.14509533
        ]
      },
      "properties": {
        "NO": 62,
        "name": "こころハウス",
        "住所": "下関市菊川町大字久野94-1",
        "定員": 36.0,
        "戸数": null,
        "電話番号": "287-0001",
        "種別": "有料老人ホーム"
      }
    },
    {
      "type": "Feature",
      "geometry": {
        "type": "Point",
        "coordinates": [
          131.023139,
          34.10889671
        ]
      },
      "properties": {
        "NO": 63,
        "name": "灯りや",
        "住所": "下関市菊川町大字上田部343-2",
        "定員": 24.0,
        "戸数": null,
        "電話番号": "227-3270",
        "種別": "有料老人ホーム"
      }
    },
    {
      "type": "Feature",
      "geometry": {
        "type": "Point",
        "coordinates": [
          130.9237367,
          34.13937107
        ]
      },
      "properties": {
        "NO": 64,
        "name": "やすらぎホームSUN",
        "住所": "下関市豊浦町大字吉永1815-1",
        "定員": 27.0,
        "戸数": null,
        "電話番号": "774-3915",
        "種別": "有料老人ホーム"
      }
    },
    {
      "type": "Feature",
      "geometry": {
        "type": "Point",
        "coordinates": [
          130.924506,
          34.13126577
        ]
      },
      "properties": {
        "NO": 65,
        "name": "ベストライフ川棚",
        "住所": "下関市豊浦町大字吉永10165-1",
        "定員": 45.0,
        "戸数": null,
        "電話番号": "775-1165",
        "種別": "有料老人ホーム"
      }
    },
    {
      "type": "Feature",
      "geometry": {
        "type": "Point",
        "coordinates": [
          130.9092973,
          34.12615485
        ]
      },
      "properties": {
        "NO": 66,
        "name": "ケアライフくろい",
        "住所": "下関市豊浦町大字黒井10634-5",
        "定員": 47.0,
        "戸数": null,
        "電話番号": "775-1765",
        "種別": "有料老人ホーム"
      }
    },
    {
      "type": "Feature",
      "geometry": {
        "type": "Point",
        "coordinates": [
          130.912408,
          34.1214975
        ]
      },
      "properties": {
        "NO": 67,
        "name": "あじさいの邱（おか）",
        "住所": "下関市豊浦町大字黒井1524番地",
        "定員": 22.0,
        "戸数": null,
        "電話番号": "772-0999",
        "種別": "有料老人ホーム"
      }
    },
    {
      "type": "Feature",
      "geometry": {
        "type": "Point",
        "coordinates": [
          130.9221523,
          34.16061512
        ]
      },
      "properties": {
        "NO": 68,
        "name": "一葉川棚",
        "住所": "下関市豊浦町大字川棚1545-24",
        "定員": 60.0,
        "戸数": null,
        "電話番号": "227-2895",
        "種別": "有料老人ホーム"
      }
    },
    {
      "type": "Feature",
      "geometry": {
        "type": "Point",
        "coordinates": [
          130.9237393,
          34.15836386
        ]
      },
      "properties": {
        "NO": 69,
        "name": "デイホーム川棚",
        "住所": "下関市豊浦町大字川棚1500-3",
        "定員": 25.0,
        "戸数": null,
        "電話番号": "774-2266",
        "種別": "有料老人ホーム"
      }
    },
    {
      "type": "Feature",
      "geometry": {
        "type": "Point",
        "coordinates": [
          130.9319593,
          34.15018374
        ]
      },
      "properties": {
        "NO": 70,
        "name": "野の花",
        "住所": "下関市豊浦町大字川棚3615",
        "定員": 36.0,
        "戸数": null,
        "電話番号": "775-3000",
        "種別": "有料老人ホーム"
      }
    },
    {
      "type": "Feature",
      "geometry": {
        "type": "Point",
        "coordinates": [
          130.8839278,
          34.29457987
        ]
      },
      "properties": {
        "NO": 71,
        "name": "ケアホーム向日葵",
        "住所": "下関市豊北町大字神田上891-25",
        "定員": 6.0,
        "戸数": null,
        "電話番号": "788-0688",
        "種別": "有料老人ホーム"
      }
    },
    {
      "type": "Feature",
      "geometry": {
        "type": "Point",
        "coordinates": [
          130.897797,
          34.34200316
        ]
      },
      "properties": {
        "NO": 72,
        "name": "ケアホーム向日葵館",
        "住所": "下関市豊北町大字神田3162-6",
        "定員": 6.0,
        "戸数": null,
        "電話番号": "786-5232",
        "種別": "有料老人ホーム"
      }
    },
    {
      "type": "Feature",
      "geometry": {
        "type": "Point",
        "coordinates": [
          130.9547322,
          33.96724853
        ]
      },
      "properties": {
        "NO": 1,
        "name": "愛グループ シャングリラ",
        "住所": "下関市みもすそ川町23-1",
        "定員": null,
        "戸数": "23戸",
        "電話番号": "231-1165",
        "種別": "サービス付き高齢者向け住宅"
      }
    },
    {
      "type": "Feature",
      "geometry": {
        "type": "Point",
        "coordinates": [
          130.9542197,
          33.96994566
        ]
      },
      "properties": {
        "NO": 2,
        "name": "サービス付き高齢者向け住宅 みもすそ川",
        "住所": "下関市みもすそ川町10-20",
        "定員": null,
        "戸数": "19戸",
        "電話番号": "232-0555",
        "種別": "サービス付き高齢者向け住宅"
      }
    },
    {
      "type": "Feature",
      "geometry": {
        "type": "Point",
        "coordinates": [
          130.9522877,
          33.96173066
        ]
      },
      "properties": {
        "NO": 3,
        "name": "サービス付き高齢者向け住宅 海と空",
        "住所": "下関市壇之浦町4-28",
        "定員": null,
        "戸数": "46戸",
        "電話番号": "228-0700",
        "種別": "サービス付き高齢者向け住宅"
      }
    },
    {
      "type": "Feature",
      "geometry": {
        "type": "Point",
        "coordinates": [
          130.9439122,
          33.9604329
        ]
      },
      "properties": {
        "NO": 4,
        "name": "サービス付き高齢者向け住宅 隣ご縁唐戸",
        "住所": "下関市幸町11-1",
        "定員": null,
        "戸数": "30戸",
        "電話番号": "227-2250",
        "種別": "サービス付き高齢者向け住宅"
      }
    },
    {
      "type": "Feature",
      "geometry": {
        "type": "Point",
        "coordinates": [
          130.9199899,
          33.95533574
        ]
      },
      "properties": {
        "NO": 5,
        "name": "フェリーチェ新地西町",
        "住所": "下関市新地西町10-9",
        "定員": null,
        "戸数": "48戸",
        "電話番号": "232-8811",
        "種別": "サービス付き高齢者向け住宅"
      }
    },
    {
      "type": "Feature",
      "geometry": {
        "type": "Point",
        "coordinates": [
          130.9147698,
          33.96199266
        ]
      },
      "properties": {
        "NO": 6,
        "name": "シニアウエルス下関弐番館",
        "住所": "下関市西大坪町18-13",
        "定員": null,
        "戸数": "25戸",
        "電話番号": "222-2551",
        "種別": "サービス付き高齢者向け住宅"
      }
    },
    {
      "type": "Feature",
      "geometry": {
        "type": "Point",
        "coordinates": [
          130.9149548,
          33.96132461
        ]
      },
      "properties": {
        "NO": 7,
        "name": "シニアウエルス下関壱番館",
        "住所": "下関市西大坪町18-14",
        "定員": null,
        "戸数": "40戸",
        "電話番号": "222-2551",
        "種別": "サービス付き高齢者向け住宅"
      }
    },
    {
      "type": "Feature",
      "geometry": {
        "type": "Point",
        "coordinates": [
          130.9193248,
          33.96966213
        ]
      },
      "properties": {
        "NO": 8,
        "name": "サービス付き高齢者向け住宅フロイデ金比羅",
        "住所": "下関市金比羅町10-1",
        "定員": null,
        "戸数": "12戸",
        "電話番号": "227-2834",
        "種別": "サービス付き高齢者向け住宅"
      }
    },
    {
      "type": "Feature",
      "geometry": {
        "type": "Point",
        "coordinates": [
          130.9269373,
          33.98431834
        ]
      },
      "properties": {
        "NO": 9,
        "name": "ケアタウン山の田",
        "住所": "下関市武久町1丁目19-30",
        "定員": null,
        "戸数": "50戸",
        "電話番号": "250-7184",
        "種別": "サービス付き高齢者向け住宅"
      }
    },
    {
      "type": "Feature",
      "geometry": {
        "type": "Point",
        "coordinates": [
          130.9446841,
          33.97994431
        ]
      },
      "properties": {
        "NO": 10,
        "name": "サービス付き高齢者向け住宅夢叶",
        "住所": "下関市椋野町3丁目18-18",
        "定員": null,
        "戸数": "34戸",
        "電話番号": "233-0133",
        "種別": "サービス付き高齢者向け住宅"
      }
    },
    {
      "type": "Feature",
      "geometry": {
        "type": "Point",
        "coordinates": [
          130.9385861,
          33.98241282
        ]
      },
      "properties": {
        "NO": 11,
        "name": "サービス付き高齢者向け住宅 宝の家",
        "住所": "下関市宝町23-3",
        "定員": null,
        "戸数": "16戸",
        "電話番号": "227-2765",
        "種別": "サービス付き高齢者向け住宅"
      }
    },
    {
      "type": "Feature",
      "geometry": {
        "type": "Point",
        "coordinates": [
          130.9794794,
          33.98352379
        ]
      },
      "properties": {
        "NO": 12,
        "name": "晴晴伶（はればれ）",
        "住所": "下関市長府浜浦町14-4",
        "定員": null,
        "戸数": "20戸",
        "電話番号": "249-5711",
        "種別": "サービス付き高齢者向け住宅"
      }
    },
    {
      "type": "Feature",
      "geometry": {
        "type": "Point",
        "coordinates": [
          130.9907952,
          33.99763702
        ]
      },
      "properties": {
        "NO": 13,
        "name": "サービス付き高齢者向け住宅 アイユウ城下町長府",
        "住所": "下関市長府南之町1-1",
        "定員": null,
        "戸数": "79戸",
        "電話番号": "246-6430",
        "種別": "サービス付き高齢者向け住宅"
      }
    },
    {
      "type": "Feature",
      "geometry": {
        "type": "Point",
        "coordinates": [
          131.0328663,
          34.07002866
        ]
      },
      "properties": {
        "NO": 14,
        "name": "生活支援付高齢者住宅・仁",
        "住所": "下関市小月茶屋1丁目3-10",
        "定員": null,
        "戸数": "30戸",
        "電話番号": "242-6767",
        "種別": "サービス付き高齢者向け住宅"
      }
    },
    {
      "type": "Feature",
      "geometry": {
        "type": "Point",
        "coordinates": [
          131.039995,
          34.11549996
        ]
      },
      "properties": {
        "NO": 15,
        "name": "サービス付き高齢者向け住宅 にじの丘",
        "住所": "下関市菊川町大字田部223-1",
        "定員": null,
        "戸数": "47戸",
        "電話番号": "287-2255",
        "種別": "サービス付き高齢者向け住宅"
      }
    },
    {
      "type": "Feature",
      "geometry": {
        "type": "Point",
        "coordinates": [
          130.9240359,
          34.14681492
        ]
      },
      "properties": {
        "NO": 16,
        "name": "シンフォニー川棚",
        "住所": "下関市豊浦町大字川棚6923-6",
        "定員": null,
        "戸数": "16戸",
        "電話番号": "775-3200",
        "種別": "サービス付き高齢者向け住宅"
      }
    },
    {
      "type": "Feature",
      "geometry": {
        "type": "Point",
        "coordinates": [
          130.9120867,
          34.12225918
        ]
      },
      "properties": {
        "NO": 17,
        "name": "サービス付き高齢者向け住宅やしろの杜",
        "住所": "下関市豊浦町大字黒井1536-1",
        "定員": null,
        "戸数": "18戸",
        "電話番号": "774-1901",
        "種別": "サービス付き高齢者向け住宅"
      }
    },
    {
      "type": "Feature",
      "geometry": {
        "type": "Point",
        "coordinates": [
          130.9421884,
          33.96839564
        ]
      },
      "properties": {
        "NO": 1,
        "name": "貴船園",
        "住所": "下関市貴船町3-4-1",
        "定員": 100.0,
        "戸数": null,
        "電話番号": "223-0261",
        "種別": "特別養護老人ホーム（介護老人福祉施設）"
      }
    },
    {
      "type": "Feature",
      "geometry": {
        "type": "Point",
        "coordinates": [
          130.9437331,
          33.98381204
        ]
      },
      "properties": {
        "NO": 2,
        "name": "椋野喜楽園",
        "住所": "下関市新椋野3-3-38",
        "定員": 29.0,
        "戸数": null,
        "電話番号": "231-1765",
        "種別": "特別養護老人ホーム（介護老人福祉施設）"
      }
    },
    {
      "type": "Feature",
      "geometry": {
        "type": "Point",
        "coordinates": [
          130.9193248,
          33.96966213
        ]
      },
      "properties": {
        "NO": 3,
        "name": "フロイデ金比羅",
        "住所": "下関市金比羅町10-1",
        "定員": 29.0,
        "戸数": null,
        "電話番号": "227-2812",
        "種別": "特別養護老人ホーム（介護老人福祉施設）"
      }
    },
    {
      "type": "Feature",
      "geometry": {
        "type": "Point",
        "coordinates": [
          130.9170337,
          33.98055164
        ]
      },
      "properties": {
        "NO": 4,
        "name": "寿海荘",
        "住所": "下関市武久町2-53-8",
        "定員": 121.0,
        "戸数": null,
        "電話番号": "253-5251",
        "種別": "特別養護老人ホーム（介護老人福祉施設）"
      }
    },
    {
      "type": "Feature",
      "geometry": {
        "type": "Point",
        "coordinates": [
          130.9178491,
          33.98125606
        ]
      },
      "properties": {
        "NO": 5,
        "name": "サテライト望海苑",
        "住所": "下関市武久町2-48-17",
        "定員": 29.0,
        "戸数": null,
        "電話番号": "250-2000",
        "種別": "特別養護老人ホーム（介護老人福祉施設）"
      }
    },
    {
      "type": "Feature",
      "geometry": {
        "type": "Point",
        "coordinates": [
          130.9213951,
          33.95624179
        ]
      },
      "properties": {
        "NO": 6,
        "name": "夢の里",
        "住所": "下関市新地町3-28",
        "定員": 29.0,
        "戸数": null,
        "電話番号": "228-0300",
        "種別": "特別養護老人ホーム（介護老人福祉施設）"
      }
    },
    {
      "type": "Feature",
      "geometry": {
        "type": "Point",
        "coordinates": [
          130.9005737,
          33.93836759
        ]
      },
      "properties": {
        "NO": 7,
        "name": "アイユウの苑",
        "住所": "下関市彦島迫町3-17-2",
        "定員": 100.0,
        "戸数": null,
        "電話番号": "266-8287",
        "種別": "特別養護老人ホーム（介護老人福祉施設）"
      }
    },
    {
      "type": "Feature",
      "geometry": {
        "type": "Point",
        "coordinates": [
          130.8800565,
          33.94412629
        ]
      },
      "properties": {
        "NO": 8,
        "name": "フロイデハイム",
        "住所": "下関市彦島西山町3-12-14",
        "定員": 20.0,
        "戸数": null,
        "電話番号": "261-5355",
        "種別": "特別養護老人ホーム（介護老人福祉施設）"
      }
    },
    {
      "type": "Feature",
      "geometry": {
        "type": "Point",
        "coordinates": [
          130.9125398,
          33.91965704
        ]
      },
      "properties": {
        "NO": 9,
        "name": "アイユウの苑しおはま",
        "住所": "下関市彦島塩浜町3-14-47",
        "定員": 29.0,
        "戸数": null,
        "電話番号": "267-8800",
        "種別": "特別養護老人ホーム（介護老人福祉施設）"
      }
    },
    {
      "type": "Feature",
      "geometry": {
        "type": "Point",
        "coordinates": [
          131.0065625,
          34.02573497
        ]
      },
      "properties": {
        "NO": 10,
        "name": "夢ごこち",
        "住所": "下関市長府才川1-41-76",
        "定員": 29.0,
        "戸数": null,
        "電話番号": "248-5567",
        "種別": "特別養護老人ホーム（介護老人福祉施設）"
      }
    },
    {
      "type": "Feature",
      "geometry": {
        "type": "Point",
        "coordinates": [
          130.9993689,
          34.02475718
        ]
      },
      "properties": {
        "NO": 11,
        "name": "みどり園",
        "住所": "下関市長府才川2-21-1",
        "定員": 93.0,
        "戸数": null,
        "電話番号": "248-3222",
        "種別": "特別養護老人ホーム（介護老人福祉施設）"
      }
    },
    {
      "type": "Feature",
      "geometry": {
        "type": "Point",
        "coordinates": [
          131.0130612,
          34.02767044
        ]
      },
      "properties": {
        "NO": 12,
        "name": "アイユウの苑ゆめタウン",
        "住所": "下関市ゆめタウン2-24",
        "定員": 20.0,
        "戸数": null,
        "電話番号": "249-2200",
        "種別": "特別養護老人ホーム（介護老人福祉施設）"
      }
    },
    {
      "type": "Feature",
      "geometry": {
        "type": "Point",
        "coordinates": [
          131.0154527,
          34.04114309
        ]
      },
      "properties": {
        "NO": 13,
        "name": "王司さざなみ荘",
        "住所": "下関市王司本町1-18-27",
        "定員": 29.0,
        "戸数": null,
        "電話番号": "248-2100",
        "種別": "特別養護老人ホーム（介護老人福祉施設）"
      }
    },
    {
      "type": "Feature",
      "geometry": {
        "type": "Point",
        "coordinates": [
          130.9840418,
          34.05107602
        ]
      },
      "properties": {
        "NO": 14,
        "name": "員光園",
        "住所": "下関市大字員光1544",
        "定員": 70.0,
        "戸数": null,
        "電話番号": "248-5115",
        "種別": "特別養護老人ホーム（介護老人福祉施設）"
      }
    },
    {
      "type": "Feature",
      "geometry": {
        "type": "Point",
        "coordinates": [
          130.9840418,
          34.05107602
        ]
      },
      "properties": {
        "NO": 15,
        "name": "員光園（ユニット型）",
        "住所": "下関市大字員光1544",
        "定員": 60.0,
        "戸数": null,
        "電話番号": "248-5115",
        "種別": "特別養護老人ホーム（介護老人福祉施設）"
      }
    },
    {
      "type": "Feature",
      "geometry": {
        "type": "Point",
        "coordinates": [
          130.961993,
          34.03528423
        ]
      },
      "properties": {
        "NO": 16,
        "name": "フェニックス",
        "住所": "下関市大字小野64-1",
        "定員": 54.0,
        "戸数": null,
        "電話番号": "256-5336",
        "種別": "特別養護老人ホーム（介護老人福祉施設）"
      }
    },
    {
      "type": "Feature",
      "geometry": {
        "type": "Point",
        "coordinates": [
          130.961993,
          34.03528423
        ]
      },
      "properties": {
        "NO": 17,
        "name": "ユニット型フェニックス",
        "住所": "下関市大字小野64-1",
        "定員": 50.0,
        "戸数": null,
        "電話番号": "256-5336",
        "種別": "特別養護老人ホーム（介護老人福祉施設）"
      }
    },
    {
      "type": "Feature",
      "geometry": {
        "type": "Point",
        "coordinates": [
          130.9473985,
          33.99721124
        ]
      },
      "properties": {
        "NO": 18,
        "name": "フェニックス一の宮",
        "住所": "下関市一の宮学園町19-1",
        "定員": 29.0,
        "戸数": null,
        "電話番号": "242-8580",
        "種別": "特別養護老人ホーム（介護老人福祉施設）"
      }
    },
    {
      "type": "Feature",
      "geometry": {
        "type": "Point",
        "coordinates": [
          130.9261146,
          33.99590162
        ]
      },
      "properties": {
        "NO": 19,
        "name": "慈公園",
        "住所": "下関市稗田中町8-38",
        "定員": 50.0,
        "戸数": null,
        "電話番号": "252-7500",
        "種別": "特別養護老人ホーム（介護老人福祉施設）"
      }
    },
    {
      "type": "Feature",
      "geometry": {
        "type": "Point",
        "coordinates": [
          130.9311269,
          33.99506503
        ]
      },
      "properties": {
        "NO": 20,
        "name": "稗田喜楽園",
        "住所": "下関市稗田町8-18",
        "定員": 29.0,
        "戸数": null,
        "電話番号": "242-1765",
        "種別": "特別養護老人ホーム（介護老人福祉施設）"
      }
    },
    {
      "type": "Feature",
      "geometry": {
        "type": "Point",
        "coordinates": [
          130.9104532,
          34.03500344
        ]
      },
      "properties": {
        "NO": 21,
        "name": "はまゆう苑",
        "住所": "下関市横野町3-15-10",
        "定員": 40.0,
        "戸数": null,
        "電話番号": "258-3800",
        "種別": "特別養護老人ホーム（介護老人福祉施設）"
      }
    },
    {
      "type": "Feature",
      "geometry": {
        "type": "Point",
        "coordinates": [
          130.9104532,
          34.03500344
        ]
      },
      "properties": {
        "NO": 22,
        "name": "はまゆう苑なぎさ",
        "住所": "下関市横野町3-15-10",
        "定員": 20.0,
        "戸数": null,
        "電話番号": "258-3800",
        "種別": "特別養護老人ホーム（介護老人福祉施設）"
      }
    },
    {
      "type": "Feature",
      "geometry": {
        "type": "Point",
        "coordinates": [
          130.9237859,
          34.01764447
        ]
      },
      "properties": {
        "NO": 23,
        "name": "富任荘",
        "住所": "下関市富任町6-18-8",
        "定員": 29.0,
        "戸数": null,
        "電話番号": "258-5451",
        "種別": "特別養護老人ホーム（介護老人福祉施設）"
      }
    },
    {
      "type": "Feature",
      "geometry": {
        "type": "Point",
        "coordinates": [
          131.0416819,
          34.12619966
        ]
      },
      "properties": {
        "NO": 24,
        "name": "きくがわ苑",
        "住所": "下関市菊川町大字下岡枝1064",
        "定員": 54.0,
        "戸数": null,
        "電話番号": "287-1220",
        "種別": "特別養護老人ホーム（介護老人福祉施設）"
      }
    },
    {
      "type": "Feature",
      "geometry": {
        "type": "Point",
        "coordinates": [
          131.0416819,
          34.12619966
        ]
      },
      "properties": {
        "NO": 25,
        "name": "きくがわ苑（ユニット型）",
        "住所": "下関市菊川町大字下岡枝1064",
        "定員": 30.0,
        "戸数": null,
        "電話番号": "287-1220",
        "種別": "特別養護老人ホーム（介護老人福祉施設）"
      }
    },
    {
      "type": "Feature",
      "geometry": {
        "type": "Point",
        "coordinates": [
          131.039995,
          34.11549996
        ]
      },
      "properties": {
        "NO": 26,
        "name": "にじの丘",
        "住所": "下関市菊川町大字田部223-9",
        "定員": 29.0,
        "戸数": null,
        "電話番号": "287-2655",
        "種別": "特別養護老人ホーム（介護老人福祉施設）"
      }
    },
    {
      "type": "Feature",
      "geometry": {
        "type": "Point",
        "coordinates": [
          131.0432674,
          34.25333832
        ]
      },
      "properties": {
        "NO": 27,
        "name": "ほたるホームとよた",
        "住所": "下関市豊田町大字荒木10051-2",
        "定員": 50.0,
        "戸数": null,
        "電話番号": "768-0051",
        "種別": "特別養護老人ホーム（介護老人福祉施設）"
      }
    },
    {
      "type": "Feature",
      "geometry": {
        "type": "Point",
        "coordinates": [
          131.0432674,
          34.25333832
        ]
      },
      "properties": {
        "NO": 28,
        "name": "ほたるホームとよた（ユニット型）",
        "住所": "下関市豊田町大字荒木10051-2",
        "定員": 30.0,
        "戸数": null,
        "電話番号": "768-0051",
        "種別": "特別養護老人ホーム（介護老人福祉施設）"
      }
    },
    {
      "type": "Feature",
      "geometry": {
        "type": "Point",
        "coordinates": [
          131.0688513,
          34.18395119
        ]
      },
      "properties": {
        "NO": 29,
        "name": "豊田喜楽園",
        "住所": "下関市豊田町大字中村821-1",
        "定員": 29.0,
        "戸数": null,
        "電話番号": "766-3765",
        "種別": "特別養護老人ホーム（介護老人福祉施設）"
      }
    },
    {
      "type": "Feature",
      "geometry": {
        "type": "Point",
        "coordinates": [
          130.9055592,
          34.1187056
        ]
      },
      "properties": {
        "NO": 30,
        "name": "豊寿苑",
        "住所": "下関市豊浦町大字厚母郷10442",
        "定員": 54.0,
        "戸数": null,
        "電話番号": "772-0107",
        "種別": "特別養護老人ホーム（介護老人福祉施設）"
      }
    },
    {
      "type": "Feature",
      "geometry": {
        "type": "Point",
        "coordinates": [
          130.9055592,
          34.1187056
        ]
      },
      "properties": {
        "NO": 31,
        "name": "虹の郷",
        "住所": "下関市豊浦町大字厚母郷10442",
        "定員": 29.0,
        "戸数": null,
        "電話番号": "772-0107",
        "種別": "特別養護老人ホーム（介護老人福祉施設）"
      }
    },
    {
      "type": "Feature",
      "geometry": {
        "type": "Point",
        "coordinates": [
          130.9231549,
          34.1396399
        ]
      },
      "properties": {
        "NO": 32,
        "name": "SUN（サン）",
        "住所": "下関市豊浦町大字吉永1819-1",
        "定員": 29.0,
        "戸数": null,
        "電話番号": "775-4155",
        "種別": "特別養護老人ホーム（介護老人福祉施設）"
      }
    },
    {
      "type": "Feature",
      "geometry": {
        "type": "Point",
        "coordinates": [
          130.9252204,
          34.13867339
        ]
      },
      "properties": {
        "NO": 33,
        "name": "SUN（サン）2",
        "住所": "下関市豊浦町大字川棚12139-1",
        "定員": 29.0,
        "戸数": null,
        "電話番号": "774-3903",
        "種別": "特別養護老人ホーム（介護老人福祉施設）"
      }
    },
    {
      "type": "Feature",
      "geometry": {
        "type": "Point",
        "coordinates": [
          130.9429877,
          34.30258027
        ]
      },
      "properties": {
        "NO": 34,
        "name": "梨花の里",
        "住所": "下関市豊北町大字滝部11042-1",
        "定員": 60.0,
        "戸数": null,
        "電話番号": "784-1000",
        "種別": "特別養護老人ホーム（介護老人福祉施設）"
      }
    },
    {
      "type": "Feature",
      "geometry": {
        "type": "Point",
        "coordinates": [
          130.9488732,
          34.29151663
        ]
      },
      "properties": {
        "NO": 35,
        "name": "サテライト梨花の里アスピア",
        "住所": "下関市豊北町大字滝部2969-1",
        "定員": 29.0,
        "戸数": null,
        "電話番号": "782-1181",
        "種別": "特別養護老人ホーム（介護老人福祉施設）"
      }
    },
    {
      "type": "Feature",
      "geometry": {
        "type": "Point",
        "coordinates": [
          130.9155255,
          33.9723689
        ]
      },
      "properties": {
        "NO": 1,
        "name": "あかつきの里",
        "住所": "下関市汐入町36-6",
        "定員": 18.0,
        "戸数": null,
        "電話番号": "222-3202",
        "種別": "認知症対応型共同生活介護（グループホーム）"
      }
    },
    {
      "type": "Feature",
      "geometry": {
        "type": "Point",
        "coordinates": [
          130.9239666,
          33.96752479
        ]
      },
      "properties": {
        "NO": 2,
        "name": "元町",
        "住所": "下関市元町1-7",
        "定員": 9.0,
        "戸数": null,
        "電話番号": "227-3507",
        "種別": "認知症対応型共同生活介護（グループホーム）"
      }
    },
    {
      "type": "Feature",
      "geometry": {
        "type": "Point",
        "coordinates": [
          130.9234268,
          33.98437098
        ]
      },
      "properties": {
        "NO": 3,
        "name": "たけひさ",
        "住所": "下関市武久町1-48-32",
        "定員": 9.0,
        "戸数": null,
        "電話番号": "227-2873",
        "種別": "認知症対応型共同生活介護（グループホーム）"
      }
    },
    {
      "type": "Feature",
      "geometry": {
        "type": "Point",
        "coordinates": [
          130.9193248,
          33.96966213
        ]
      },
      "properties": {
        "NO": 4,
        "name": "フロイデ金比羅",
        "住所": "下関市金比羅町10-1",
        "定員": 9.0,
        "戸数": null,
        "電話番号": "227-2813",
        "種別": "認知症対応型共同生活介護（グループホーム）"
      }
    },
    {
      "type": "Feature",
      "geometry": {
        "type": "Point",
        "coordinates": [
          130.9269373,
          33.98431834
        ]
      },
      "properties": {
        "NO": 5,
        "name": "ケアタウン山の田",
        "住所": "下関市武久町1-19-30",
        "定員": 9.0,
        "戸数": null,
        "電話番号": "250-7183",
        "種別": "認知症対応型共同生活介護（グループホーム）"
      }
    },
    {
      "type": "Feature",
      "geometry": {
        "type": "Point",
        "coordinates": [
          130.9334879,
          33.96239225
        ]
      },
      "properties": {
        "NO": 6,
        "name": "ケアシティ白雲台",
        "住所": "下関市上田中町8-14-5",
        "定員": 9.0,
        "戸数": null,
        "電話番号": "249-5132",
        "種別": "認知症対応型共同生活介護（グループホーム）"
      }
    },
    {
      "type": "Feature",
      "geometry": {
        "type": "Point",
        "coordinates": [
          130.9439152,
          33.98047511
        ]
      },
      "properties": {
        "NO": 7,
        "name": "椋野",
        "住所": "下関市椋野町3-22-43",
        "定員": 9.0,
        "戸数": null,
        "電話番号": "250-8815",
        "種別": "認知症対応型共同生活介護（グループホーム）"
      }
    },
    {
      "type": "Feature",
      "geometry": {
        "type": "Point",
        "coordinates": [
          130.9464667,
          33.97970445
        ]
      },
      "properties": {
        "NO": 8,
        "name": "椋野弐番館",
        "住所": "下関市椋野町3-4-26",
        "定員": 9.0,
        "戸数": null,
        "電話番号": "250-7323",
        "種別": "認知症対応型共同生活介護（グループホーム）"
      }
    },
    {
      "type": "Feature",
      "geometry": {
        "type": "Point",
        "coordinates": [
          130.9346131,
          33.98151931
        ]
      },
      "properties": {
        "NO": 9,
        "name": "サンキ・ウエルビィグループホーム下関",
        "住所": "下関市生野町1-4-10-2",
        "定員": 9.0,
        "戸数": null,
        "電話番号": "250-1125",
        "種別": "認知症対応型共同生活介護（グループホーム）"
      }
    },
    {
      "type": "Feature",
      "geometry": {
        "type": "Point",
        "coordinates": [
          130.9178372,
          33.93002819
        ]
      },
      "properties": {
        "NO": 10,
        "name": "ケアタウン江の浦",
        "住所": "下関市彦島江の浦町9-4-5",
        "定員": 9.0,
        "戸数": null,
        "電話番号": "261-5610",
        "種別": "認知症対応型共同生活介護（グループホーム）"
      }
    },
    {
      "type": "Feature",
      "geometry": {
        "type": "Point",
        "coordinates": [
          130.9161125,
          33.91966366
        ]
      },
      "properties": {
        "NO": 12,
        "name": "アイユウの苑",
        "住所": "下関市彦島田の首町1-1-32",
        "定員": 18.0,
        "戸数": null,
        "電話番号": "266-5361",
        "種別": "認知症対応型共同生活介護（グループホーム）"
      }
    },
    {
      "type": "Feature",
      "geometry": {
        "type": "Point",
        "coordinates": [
          130.8797,
          33.94474375
        ]
      },
      "properties": {
        "NO": 13,
        "name": "フロイデ彦島",
        "住所": "下関市彦島西山町3-12-1",
        "定員": 18.0,
        "戸数": null,
        "電話番号": "261-5082",
        "種別": "認知症対応型共同生活介護（グループホーム）"
      }
    },
    {
      "type": "Feature",
      "geometry": {
        "type": "Point",
        "coordinates": [
          130.9859942,
          33.98438159
        ]
      },
      "properties": {
        "NO": 14,
        "name": "昇陽館",
        "住所": "下関市長府黒門南町6-54",
        "定員": 18.0,
        "戸数": null,
        "電話番号": "241-1500",
        "種別": "認知症対応型共同生活介護（グループホーム）"
      }
    },
    {
      "type": "Feature",
      "geometry": {
        "type": "Point",
        "coordinates": [
          131.0065625,
          34.02573497
        ]
      },
      "properties": {
        "NO": 15,
        "name": "夢ごこち",
        "住所": "下関市長府才川1-41-76",
        "定員": 9.0,
        "戸数": null,
        "電話番号": "248-5505",
        "種別": "認知症対応型共同生活介護（グループホーム）"
      }
    },
    {
      "type": "Feature",
      "geometry": {
        "type": "Point",
        "coordinates": [
          131.018014,
          34.04828951
        ]
      },
      "properties": {
        "NO": 16,
        "name": "王司",
        "住所": "下関市王司川端1-4-56-2",
        "定員": 9.0,
        "戸数": null,
        "電話番号": "249-2255",
        "種別": "認知症対応型共同生活介護（グループホーム）"
      }
    },
    {
      "type": "Feature",
      "geometry": {
        "type": "Point",
        "coordinates": [
          131.0380635,
          34.07437842
        ]
      },
      "properties": {
        "NO": 17,
        "name": "小月",
        "住所": "下関市小月宮の町7-3",
        "定員": 18.0,
        "戸数": null,
        "電話番号": "250-5021",
        "種別": "認知症対応型共同生活介護（グループホーム）"
      }
    },
    {
      "type": "Feature",
      "geometry": {
        "type": "Point",
        "coordinates": [
          131.0507042,
          34.06826508
        ]
      },
      "properties": {
        "NO": 18,
        "name": "王喜の郷ライム",
        "住所": "下関市王喜本町4-1-6",
        "定員": 18.0,
        "戸数": null,
        "電話番号": "250-6666",
        "種別": "認知症対応型共同生活介護（グループホーム）"
      }
    },
    {
      "type": "Feature",
      "geometry": {
        "type": "Point",
        "coordinates": [
          131.0521365,
          34.0636182
        ]
      },
      "properties": {
        "NO": 19,
        "name": "王喜の郷",
        "住所": "下関市王喜本町6-1-12",
        "定員": 9.0,
        "戸数": null,
        "電話番号": "283-2834",
        "種別": "認知症対応型共同生活介護（グループホーム）"
      }
    },
    {
      "type": "Feature",
      "geometry": {
        "type": "Point",
        "coordinates": [
          130.961993,
          34.03528423
        ]
      },
      "properties": {
        "NO": 20,
        "name": "フェニックスの里",
        "住所": "下関市大字小野64-1",
        "定員": 9.0,
        "戸数": null,
        "電話番号": "263-2088",
        "種別": "認知症対応型共同生活介護（グループホーム）"
      }
    },
    {
      "type": "Feature",
      "geometry": {
        "type": "Point",
        "coordinates": [
          130.9640462,
          34.00379416
        ]
      },
      "properties": {
        "NO": 21,
        "name": "愛の郷",
        "住所": "下関市一の宮東町3-380-1",
        "定員": 18.0,
        "戸数": null,
        "電話番号": "263-6662",
        "種別": "認知症対応型共同生活介護（グループホーム）"
      }
    },
    {
      "type": "Feature",
      "geometry": {
        "type": "Point",
        "coordinates": [
          130.9473985,
          33.99721124
        ]
      },
      "properties": {
        "NO": 22,
        "name": "一の宮の里",
        "住所": "下関市一の宮学園町19-1",
        "定員": 9.0,
        "戸数": null,
        "電話番号": "242-8582",
        "種別": "認知症対応型共同生活介護（グループホーム）"
      }
    },
    {
      "type": "Feature",
      "geometry": {
        "type": "Point",
        "coordinates": [
          130.9568326,
          34.01520311
        ]
      },
      "properties": {
        "NO": 23,
        "name": "形山",
        "住所": "下関市形山町5-57",
        "定員": 9.0,
        "戸数": null,
        "電話番号": "263-6611",
        "種別": "認知症対応型共同生活介護（グループホーム）"
      }
    },
    {
      "type": "Feature",
      "geometry": {
        "type": "Point",
        "coordinates": [
          130.9213239,
          34.01137733
        ]
      },
      "properties": {
        "NO": 24,
        "name": "あやらぎ",
        "住所": "下関市綾羅木新町1-16-13",
        "定員": 18.0,
        "戸数": null,
        "電話番号": "242-9336",
        "種別": "認知症対応型共同生活介護（グループホーム）"
      }
    },
    {
      "type": "Feature",
      "geometry": {
        "type": "Point",
        "coordinates": [
          130.9210895,
          34.01230248
        ]
      },
      "properties": {
        "NO": 25,
        "name": "あやらぎの里",
        "住所": "下関市綾羅木新町2-2-9",
        "定員": 9.0,
        "戸数": null,
        "電話番号": "250-7215",
        "種別": "認知症対応型共同生活介護（グループホーム）"
      }
    },
    {
      "type": "Feature",
      "geometry": {
        "type": "Point",
        "coordinates": [
          130.9240183,
          34.02941609
        ]
      },
      "properties": {
        "NO": 26,
        "name": "やすおかの里",
        "住所": "下関市安岡町7-7-1",
        "定員": 27.0,
        "戸数": null,
        "電話番号": "250-8257",
        "種別": "認知症対応型共同生活介護（グループホーム）"
      }
    },
    {
      "type": "Feature",
      "geometry": {
        "type": "Point",
        "coordinates": [
          130.9098095,
          34.03444252
        ]
      },
      "properties": {
        "NO": 27,
        "name": "わたぼうし",
        "住所": "下関市横野町3-16-35",
        "定員": 18.0,
        "戸数": null,
        "電話番号": "258-3123",
        "種別": "認知症対応型共同生活介護（グループホーム）"
      }
    },
    {
      "type": "Feature",
      "geometry": {
        "type": "Point",
        "coordinates": [
          131.0420103,
          34.12682155
        ]
      },
      "properties": {
        "NO": 28,
        "name": "うぐいすの里",
        "住所": "下関市菊川町大字下岡枝1062",
        "定員": 18.0,
        "戸数": null,
        "電話番号": "287-1230",
        "種別": "認知症対応型共同生活介護（グループホーム）"
      }
    },
    {
      "type": "Feature",
      "geometry": {
        "type": "Point",
        "coordinates": [
          131.039995,
          34.11549996
        ]
      },
      "properties": {
        "NO": 29,
        "name": "にじの丘",
        "住所": "下関市菊川町大字田部223-9",
        "定員": 9.0,
        "戸数": null,
        "電話番号": "287-2610",
        "種別": "認知症対応型共同生活介護（グループホーム）"
      }
    },
    {
      "type": "Feature",
      "geometry": {
        "type": "Point",
        "coordinates": [
          131.0786676,
          34.2002053
        ]
      },
      "properties": {
        "NO": 30,
        "name": "豊田",
        "住所": "下関市豊田町大字中村7-1",
        "定員": 18.0,
        "戸数": null,
        "電話番号": "767-0058",
        "種別": "認知症対応型共同生活介護（グループホーム）"
      }
    },
    {
      "type": "Feature",
      "geometry": {
        "type": "Point",
        "coordinates": [
          131.0689432,
          34.18367769
        ]
      },
      "properties": {
        "NO": 31,
        "name": "豊田喜楽園",
        "住所": "下関市豊田町大字中村819-1",
        "定員": 9.0,
        "戸数": null,
        "電話番号": "242-1180",
        "種別": "認知症対応型共同生活介護（グループホーム）"
      }
    },
    {
      "type": "Feature",
      "geometry": {
        "type": "Point",
        "coordinates": [
          130.9329678,
          34.2070481
        ]
      },
      "properties": {
        "NO": 32,
        "name": "あいの家",
        "住所": "下関市豊浦町大字宇賀7378-19",
        "定員": 9.0,
        "戸数": null,
        "電話番号": "776-5451",
        "種別": "認知症対応型共同生活介護（グループホーム）"
      }
    },
    {
      "type": "Feature",
      "geometry": {
        "type": "Point",
        "coordinates": [
          130.9120867,
          34.12225918
        ]
      },
      "properties": {
        "NO": 33,
        "name": "あじさい",
        "住所": "下関市豊浦町大字黒井1536-1",
        "定員": 9.0,
        "戸数": null,
        "電話番号": "774-1981",
        "種別": "認知症対応型共同生活介護（グループホーム）"
      }
    },
    {
      "type": "Feature",
      "geometry": {
        "type": "Point",
        "coordinates": [
          130.8825867,
          34.13698581
        ]
      },
      "properties": {
        "NO": 34,
        "name": "あじさい室津",
        "住所": "下関市豊浦町大字室津下1443-1",
        "定員": 9.0,
        "戸数": null,
        "電話番号": "774-2368",
        "種別": "認知症対応型共同生活介護（グループホーム）"
      }
    },
    {
      "type": "Feature",
      "geometry": {
        "type": "Point",
        "coordinates": [
          130.9167798,
          34.1451867
        ]
      },
      "properties": {
        "NO": 35,
        "name": "ほほえみ",
        "住所": "下関市豊浦町大字涌田後地31-1",
        "定員": 9.0,
        "戸数": null,
        "電話番号": "772-0334",
        "種別": "認知症対応型共同生活介護（グループホーム）"
      }
    },
    {
      "type": "Feature",
      "geometry": {
        "type": "Point",
        "coordinates": [
          130.9941189,
          34.27287661
        ]
      },
      "properties": {
        "NO": 36,
        "name": "そまじ",
        "住所": "下関市豊北町大字田耕2790",
        "定員": 9.0,
        "戸数": null,
        "電話番号": "783-0441",
        "種別": "認知症対応型共同生活介護（グループホーム）"
      }
    },
    {
      "type": "Feature",
      "geometry": {
        "type": "Point",
        "coordinates": [
          130.9059921,
          34.35406799
        ]
      },
      "properties": {
        "NO": 37,
        "name": "しまど",
        "住所": "下関市豊北町大字神田4611-2",
        "定員": 9.0,
        "戸数": null,
        "電話番号": "786-0246",
        "種別": "認知症対応型共同生活介護（グループホーム）"
      }
    }
  ]
}